STARLINK-34817          
1 65362U 25190M   26182.77511272  .00039320  00000+0  11681-2 0  9995
2 65362  53.1577 356.7434 0001113  75.7622 284.3504 15.34417185 47241
STARLINK-34797          
1 65363U 25190N   26183.47065965  .00010309  00000+0  31593-3 0  9998
2 65363  53.1559 353.9743 0002114 103.5618 256.5620 15.34390423 47347
STARLINK-34729          
1 65364U 25190P   26183.49756238  .00007573  00000+0  26771-3 0  9992
2 65364  53.1590 354.8474 0002472 299.6008  60.4746 15.30180249 47756
STARLINK-34710          
1 65365U 25190Q   26183.20685400  .00034292  00000+0  11636-2 0  9995
2 65365  53.1638 356.5882 0000452 235.3966 124.6992 15.30228417 46810
STARLINK-34943          
1 65366U 25190R   26183.47276485  .00030804  00000+0  91891-3 0  9991
2 65366  53.1536 353.9870 0002668 103.5371 256.5929 15.34404377 46879
STARLINK-34946          
1 65367U 25190S   26183.20379346  .00028634  00000+0  85466-3 0  9992
2 65367  53.1610 355.1487 0000490 220.2424 139.8543 15.34426285 47304
STARLINK-34259          
1 65368U 25190T   26183.19747976  .00038943  00000+0  11564-2 0  9990
2 65368  53.1613 355.1139 0000981 253.4859 106.6036 15.34436537 47307
STARLINK-34913          
1 65369U 25190U   26183.48328937  .00016061  00000+0  48564-3 0  9993
2 65369  53.1598 354.0529 0001694 308.4233  51.6617 15.34388139 47342
STARLINK-34870          
1 65370U 25190V   26183.49861837  .00011912  00000+0  41388-3 0  9994
2 65370  53.1591 354.8543 0002289  90.5084 269.6179 15.30184169 46868
STARLINK-34869          
1 65371U 25190W   26183.50072631  .00020937  00000+0  71709-3 0  9990
2 65371  53.1578 354.8657 0002421  93.1531 266.9747 15.30196714 47337
STARLINK-34903          
1 65372U 25190X   26183.48806028  .00007256  00000+0  25700-3 0  9992
2 65372  53.1595 354.7794 0001002  75.0790 285.0321 15.30183359 47339
STARLINK-34891          
1 65373U 25190Y   26183.50423757  .00023301  00000+0  69963-3 0  9998
2 65373  53.1611 353.4647 0001410  87.4691 272.6473 15.34354316 46833
STARLINK-34900          
1 65374U 25190Z   26183.49122590  .00012818  00000+0  44433-3 0  9994
2 65374  53.1601 354.8035 0000742  70.8013 289.3068 15.30186351 46811
STARLINK-34305          
1 65375U 25190AA  26183.48911437  .00018554  00000+0  63714-3 0  9996
2 65375  53.1602 354.7863 0000823  64.7572 295.3514 15.30192683 47339
STARLINK-34249          
1 65376U 25190AB  26183.49582851 -.00007198  00000+0 -20244-3 0  9997
2 65376  53.1601 353.4110 0001303  90.9676 269.1476 15.34346378 47770
STARLINK-34879          
1 65377U 25190AC  26183.02346254  .00023372  00000+0  79795-3 0  9997
2 65377  53.1606 356.8562 0001792  31.7129 328.3979 15.30232310 47268
STARLINK-34912          
1 65378U 25190AD  26183.47434236  .00027623  00000+0  94126-3 0  9993
2 65378  53.1557 354.6929 0002701  92.6520 267.4790 15.30199920 47330
STARLINK-34985          
1 65379U 25191A   26183.57954117 -.00034723  00000+0 -24176-2 0  9999
2 65379  97.2891  53.1524 0001322  55.7979 304.3374 15.05602152 47550
STARLINK-35051          
1 65380U 25191B   26183.60999795  .00004067  00000+0  28556-3 0  9999
2 65380  97.2861  53.2676 0002677  83.9375 276.2158 15.05657845 47573
STARLINK-35028          
1 65381U 25191C   26183.19465083  .00008334  00000+0  58053-3 0  9998
2 65381  97.2860  52.9156 0002344  93.0936 267.0560 15.05670237 47506
STARLINK-35032          
1 65382U 25191D   26183.62937906  .00002737  00000+0  19348-3 0  9990
2 65382  97.2859  53.2403 0003207  81.2879 278.8712 15.05657485 47563
STARLINK-35054          
1 65383U 25191E   26183.58783479  .00002041  00000+0  14527-3 0  9992
2 65383  97.2863  53.1445 0002433  91.7781 268.3725 15.05661126 47556
STARLINK-35012          
1 65384U 25191F   26183.57122435  .00002498  00000+0  17694-3 0  9995
2 65384  97.2866  53.1658 0002552  81.4815 278.6702 15.05659400 47553
STARLINK-35073          
1 65385U 25191G   26183.22232517 -.00004991  00000+0 -34238-3 0  9996
2 65385  97.2919  52.8757 0002055  86.7067 273.4395 15.05639064 47504
STARLINK-35066          
1 65386U 25191H   26183.58335648  .00054933  00000+0  37847-2 0  9992
2 65386  97.2849  53.2652 0001509  84.9521 175.8734 15.05622816  5686
STARLINK-34703          
1 65387U 25191J   26183.34972003  .00010396  00000+0  72317-3 0  9996
2 65387  97.2864  53.0090 0002923  84.7302 275.4259 15.05658990 47524
STARLINK-34957          
1 65388U 25191K   26183.59615455  .00006248  00000+0  43647-3 0  9994
2 65388  97.2854  53.2879 0002357  90.0074 270.1423 15.05656934 47563
STARLINK-34993          
1 65389U 25191L   26183.57400179  .00008552  00000+0  59565-3 0  9994
2 65389  97.2862  53.1623 0002825  68.9742 291.1788 15.05666414 47555
STARLINK-35083          
1 65390U 25191M   26183.18631636  .00006489  00000+0  45301-3 0  9997
2 65390  97.2843  52.7716 0002534  86.6835 273.4682 15.05668020 47495
STARLINK-34786          
1 65391U 25191N   26183.60446049  .00002436  00000+0  17267-3 0  9995
2 65391  97.2862  53.2760 0002904  82.4660 277.6897 15.05657422 47569
