OBJECT_NAME,OBJECT_ID,EPOCH,MEAN_MOTION,ECCENTRICITY,INCLINATION,RA_OF_ASC_NODE,ARG_OF_PERICENTER,MEAN_ANOMALY,EPHEMERIS_TYPE,CLASSIFICATION_TYPE,NORAD_CAT_ID,ELEMENT_SET_NO,REV_AT_EPOCH,BSTAR,MEAN_MOTION_DOT,MEAN_MOTION_DDOT
STARLINK-34817,2025-190M,2026-07-01T18:36:09.739008,15.34417185,.0001113,53.1577,356.7434,75.7622,284.3504,0,U,65362,999,4724,.11681396E-2,.3932E-3,0
STARLINK-34797,2025-190N,2026-07-02T11:17:44.993760,15.34390423,.00021147,53.1559,353.9743,103.5618,256.5620,0,U,65363,999,4734,.31593061E-3,.10309E-3,0
STARLINK-34729,2025-190P,2026-07-02T11:56:29.389632,15.30180249,.00024725,53.1590,354.8474,299.6008,60.4746,0,U,65364,999,4775,.26770859E-3,.7573E-4,0
STARLINK-34710,2025-190Q,2026-07-02T04:57:52.185600,15.30228417,.00004521,53.1638,356.5882,235.3966,124.6992,0,U,65365,999,4681,.1163584E-2,.34292E-3,0
STARLINK-34943,2025-190R,2026-07-02T11:20:46.883040,15.34404377,.00026688,53.1536,353.9870,103.5371,256.5929,0,U,65366,999,4687,.91891088E-3,.30804E-3,0
STARLINK-34946,2025-190S,2026-07-02T04:53:27.754944,15.34426285,.00004904,53.1610,355.1487,220.2424,139.8543,0,U,65367,999,4730,.85465996E-3,.28634E-3,0
STARLINK-34259,2025-190T,2026-07-02T04:44:22.251264,15.34436537,.00009814,53.1613,355.1139,253.4859,106.6036,0,U,65368,999,4730,.11563965E-2,.38943E-3,0
STARLINK-34913,2025-190U,2026-07-02T11:35:56.201568,15.34388139,.00016942,53.1598,354.0529,308.4233,51.6617,0,U,65369,999,4734,.48563806E-3,.16061E-3,0
STARLINK-34870,2025-190V,2026-07-02T11:58:00.627168,15.30184169,.00022896,53.1591,354.8543,90.5084,269.6179,0,U,65370,999,4686,.413876E-3,.11912E-3,0
STARLINK-34869,2025-190W,2026-07-02T12:01:02.753184,15.30196714,.00024213,53.1578,354.8657,93.1531,266.9747,0,U,65371,999,4733,.71708967E-3,.20937E-3,0
STARLINK-34903,2025-190X,2026-07-02T11:42:48.408192,15.30183359,.00010024,53.1595,354.7794,75.0790,285.0321,0,U,65372,999,4733,.25699681E-3,.7256E-4,0
STARLINK-34891,2025-190Y,2026-07-02T12:06:06.126048,15.34354316,.00014102,53.1611,353.4647,87.4691,272.6473,0,U,65373,999,4683,.69963145E-3,.23301E-3,0
STARLINK-34900,2025-190Z,2026-07-02T11:47:21.917760,15.30186351,.00007426,53.1601,354.8035,70.8013,289.3068,0,U,65374,999,4681,.44433395E-3,.12818E-3,0
STARLINK-34305,2025-190AA,2026-07-02T11:44:19.481568,15.30192683,.00008234,53.1602,354.7863,64.7572,295.3514,0,U,65375,999,4733,.63713718E-3,.18554E-3,0
STARLINK-34249,2025-190AB,2026-07-02T11:53:59.583264,15.34346378,.0001303,53.1601,353.4110,90.9676,269.1476,0,U,65376,999,4777,-.20243921E-3,-.7198E-4,0
STARLINK-34879,2025-190AC,2026-07-02T00:33:47.163456,15.30232310,.00017929,53.1606,356.8562,31.7129,328.3979,0,U,65377,999,4726,.79795177E-3,.23372E-3,0
STARLINK-34912,2025-190AD,2026-07-02T11:23:03.179904,15.30199920,.00027012,53.1557,354.6929,92.6520,267.4790,0,U,65378,999,4733,.94126412E-3,.27623E-3,0
STARLINK-34985,2025-191A,2026-07-02T13:54:32.357088,15.05602152,.00013226,97.2891,53.1524,55.7979,304.3374,0,U,65379,999,4755,-.24176139E-2,-.34723E-3,0
STARLINK-35051,2025-191B,2026-07-02T14:38:23.822880,15.05657845,.00026772,97.2861,53.2676,83.9375,276.2158,0,U,65380,999,4757,.28556265E-3,.4067E-4,0
STARLINK-35028,2025-191C,2026-07-02T04:40:17.831712,15.05670237,.00023444,97.2860,52.9156,93.0936,267.0560,0,U,65381,999,4750,.58052748E-3,.8334E-4,0
STARLINK-35032,2025-191D,2026-07-02T15:06:18.350784,15.05657485,.00032072,97.2859,53.2403,81.2879,278.8712,0,U,65382,999,4756,.19348218E-3,.2737E-4,0
STARLINK-35054,2025-191E,2026-07-02T14:06:28.925856,15.05661126,.00024338,97.2863,53.1445,91.7781,268.3725,0,U,65383,999,4755,.14526826E-3,.2041E-4,0
STARLINK-35012,2025-191F,2026-07-02T13:42:33.783840,15.05659400,.00025527,97.2866,53.1658,81.4815,278.6702,0,U,65384,999,4755,.17694102E-3,.2498E-4,0
STARLINK-35073,2025-191G,2026-07-02T05:20:08.894688,15.05639064,.00020554,97.2919,52.8757,86.7067,273.4395,0,U,65385,999,4750,-.34237955E-3,-.4991E-4,0
STARLINK-35066,2025-191H,2026-07-02T14:00:01.999872,15.05622816,.00015098,97.2849,53.2652,84.9521,175.8734,0,U,65386,999,568,.37847298E-2,.54933E-3,0
STARLINK-34703,2025-191J,2026-07-02T08:23:35.810592,15.05658990,.00029235,97.2864,53.0090,84.7302,275.4259,0,U,65387,999,4752,.72316624E-3,.10396E-3,0
STARLINK-34957,2025-191K,2026-07-02T14:18:27.753120,15.05656934,.00023574,97.2854,53.2879,90.0074,270.1423,0,U,65388,999,4756,.43646846E-3,.6248E-4,0
STARLINK-34993,2025-191L,2026-07-02T13:46:33.754656,15.05666414,.00028256,97.2862,53.1623,68.9742,291.1788,0,U,65389,999,4755,.59565427E-3,.8552E-4,0
STARLINK-35083,2025-191M,2026-07-02T04:28:17.733504,15.05668020,.00025343,97.2843,52.7716,86.6835,273.4682,0,U,65390,999,4749,.45301163E-3,.6489E-4,0
STARLINK-34786,2025-191N,2026-07-02T14:30:25.386336,15.05657422,.00029041,97.2862,53.2760,82.4660,277.6897,0,U,65391,999,4756,.17266538E-3,.2436E-4,0
